[{"OBJECT_NAME":"STARLINK-4578","OBJECT_ID":"2022-125B","EPOCH":"2026-03-10T00:00:02.999808","MEAN_MOTION":15.62568456,"ECCENTRICITY":0.00020465,"INCLINATION":53.2173,"RA_OF_ASC_NODE":215.6942,"ARG_OF_PERICENTER":23.1029,"MEAN_ANOMALY":169.28,"EPHEMERIS_TYPE":0,"CLASSIFICATION_TYPE":"U","NORAD_CAT_ID":53965,"ELEMENT_SET_NO":999,"REV_AT_EPOCH":584,"BSTAR":0.010109163,"MEAN_MOTION_DOT":0.01005123,"MEAN_MOTION_DDOT":0},{"OBJECT_NAME":"STARLINK-36595","OBJECT_ID":"2026-020Y","EPOCH":"2026-03-09T22:00:01.999584","MEAN_MOTION":15.68201858,"ECCENTRICITY":0.00012094,"INCLINATION":42.999,"RA_OF_ASC_NODE":140.3235,"ARG_OF_PERICENTER":283.6105,"MEAN_ANOMALY":204.2626,"EPHEMERIS_TYPE":0,"CLASSIFICATION_TYPE":"U","NORAD_CAT_ID":67639,"ELEMENT_SET_NO":999,"REV_AT_EPOCH":599,"BSTAR":-0.019427213,"MEAN_MOTION_DOT":-0.01971633,"MEAN_MOTION_DDOT":0}]
